[{"OBJECT_NAME":"STARLINK-1832","OBJECT_ID":"2020-074AT","EPOCH":"2026-03-10T00:00:02.999808","MEAN_MOTION":15.76443226,"ECCENTRICITY":0.00035584,"INCLINATION":53.0416,"RA_OF_ASC_NODE":266.0189,"ARG_OF_PERICENTER":137.8134,"MEAN_ANOMALY":144.3704,"EPHEMERIS_TYPE":0,"CLASSIFICATION_TYPE":"U","NORAD_CAT_ID":46780,"ELEMENT_SET_NO":999,"REV_AT_EPOCH":591,"BSTAR":0.0012171587,"MEAN_MOTION_DOT":0.00200836,"MEAN_MOTION_DDOT":0},{"OBJECT_NAME":"STARLINK-36911","OBJECT_ID":"2026-039Y","EPOCH":"2026-03-09T22:00:01.999584","MEAN_MOTION":15.85762918,"ECCENTRICITY":0.00016831,"INCLINATION":42.9978,"RA_OF_ASC_NODE":53.3258,"ARG_OF_PERICENTER":259.9093,"MEAN_ANOMALY":86.3596,"EPHEMERIS_TYPE":0,"CLASSIFICATION_TYPE":"U","NORAD_CAT_ID":68008,"ELEMENT_SET_NO":999,"REV_AT_EPOCH":291,"BSTAR":-0.0070749252,"MEAN_MOTION_DOT":-0.0156619,"MEAN_MOTION_DDOT":0}]
